HAWK-A                  
1 43765U 18099H   26068.67628545  .00008617  00000+0  36104-3 0  9995
2 43765  97.4051 122.2425 0034260 275.5523  84.1807 15.23231043397949
STARLINK-31913          
1 59667U 24084P   26068.28563546  .00000152  00000+0  15055-4 0  9999
2 59667  43.0063  40.4201 0001926 269.9979  90.0652 15.27582330104352
